[{"OBJECT_NAME":"ONEWEB-0446","OBJECT_ID":"2022-012U","EPOCH":"2025-09-18T00:46:53.252256","MEAN_MOTION":13.10375109,"ECCENTRICITY":0.00017674,"INCLINATION":87.8742,"RA_OF_ASC_NODE":90.5626,"ARG_OF_PERICENTER":94.2735,"MEAN_ANOMALY":265.8594,"EPHEMERIS_TYPE":0,"CLASSIFICATION_TYPE":"U","NORAD_CAT_ID":51640,"ELEMENT_SET_NO":999,"REV_AT_EPOCH":17368,"BSTAR":-0.00076619122,"MEAN_MOTION_DOT":-2.55e-6,"MEAN_MOTION_DDOT":0},{"OBJECT_NAME":"ONEWEB-0448","OBJECT_ID":"2022-012V","EPOCH":"2025-09-18T00:54:03.478464","MEAN_MOTION":13.10375336,"ECCENTRICITY":0.00016445,"INCLINATION":87.8741,"RA_OF_ASC_NODE":90.5612,"ARG_OF_PERICENTER":85.1692,"MEAN_ANOMALY":274.9624,"EPHEMERIS_TYPE":0,"CLASSIFICATION_TYPE":"U","NORAD_CAT_ID":51641,"ELEMENT_SET_NO":999,"REV_AT_EPOCH":17365,"BSTAR":-0.00047831717,"MEAN_MOTION_DOT":-1.54e-6,"MEAN_MOTION_DDOT":0},{"OBJECT_NAME":"ONEWEB-0449","OBJECT_ID":"2022-012W","EPOCH":"2025-09-18T01:01:14.938464","MEAN_MOTION":13.10375488,"ECCENTRICITY":0.00020936,"INCLINATION":87.8737,"RA_OF_ASC_NODE":90.5309,"ARG_OF_PERICENTER":78.2615,"MEAN_ANOMALY":281.8747,"EPHEMERIS_TYPE":0,"CLASSIFICATION_TYPE":"U","NORAD_CAT_ID":51642,"ELEMENT_SET_NO":999,"REV_AT_EPOCH":17366,"BSTAR":0.00079698698,"MEAN_MOTION_DOT":2.91e-6,"MEAN_MOTION_DDOT":0},{"OBJECT_NAME":"ONEWEB-0451","OBJECT_ID":"2022-012X","EPOCH":"2025-09-17T23:27:50.760576","MEAN_MOTION":13.17649254,"ECCENTRICITY":0.00018577,"INCLINATION":87.9055,"RA_OF_ASC_NODE":59.9707,"ARG_OF_PERICENTER":89.6627,"MEAN_ANOMALY":270.4717,"EPHEMERIS_TYPE":0,"CLASSIFICATION_TYPE":"U","NORAD_CAT_ID":51643,"ELEMENT_SET_NO":999,"REV_AT_EPOCH":17781,"BSTAR":2.831506e-5,"MEAN_MOTION_DOT":2.4e-7,"MEAN_MOTION_DDOT":0},{"OBJECT_NAME":"ONEWEB-0452","OBJECT_ID":"2022-012Y","EPOCH":"2025-09-17T23:25:24.986496","MEAN_MOTION":13.17648459,"ECCENTRICITY":0.00018484,"INCLINATION":87.9047,"RA_OF_ASC_NODE":60.033,"ARG_OF_PERICENTER":84.1148,"MEAN_ANOMALY":276.0194,"EPHEMERIS_TYPE":0,"CLASSIFICATION_TYPE":"U","NORAD_CAT_ID":51644,"ELEMENT_SET_NO":999,"REV_AT_EPOCH":17782,"BSTAR":-0.000411214,"MEAN_MOTION_DOT":-1.47e-6,"MEAN_MOTION_DDOT":0},{"OBJECT_NAME":"ONEWEB-0456","OBJECT_ID":"2022-012AA","EPOCH":"2025-09-17T23:25:38.175456","MEAN_MOTION":13.10373224,"ECCENTRICITY":0.00014898,"INCLINATION":87.8743,"RA_OF_ASC_NODE":90.5053,"ARG_OF_PERICENTER":86.6171,"MEAN_ANOMALY":273.5127,"EPHEMERIS_TYPE":0,"CLASSIFICATION_TYPE":"U","NORAD_CAT_ID":51646,"ELEMENT_SET_NO":999,"REV_AT_EPOCH":17369,"BSTAR":0.0017804432,"MEAN_MOTION_DOT":6.34e-6,"MEAN_MOTION_DDOT":0},{"OBJECT_NAME":"ONEWEB-0457","OBJECT_ID":"2022-012AB","EPOCH":"2025-09-18T00:42:06.376608","MEAN_MOTION":13.1037558,"ECCENTRICITY":0.00020905,"INCLINATION":87.8739,"RA_OF_ASC_NODE":90.5512,"ARG_OF_PERICENTER":88.6545,"MEAN_ANOMALY":271.4822,"EPHEMERIS_TYPE":0,"CLASSIFICATION_TYPE":"U","NORAD_CAT_ID":51647,"ELEMENT_SET_NO":999,"REV_AT_EPOCH":17370,"BSTAR":-0.0014105651,"MEAN_MOTION_DOT":-4.8e-6,"MEAN_MOTION_DDOT":0},{"OBJECT_NAME":"ONEWEB-0458","OBJECT_ID":"2022-012AC","EPOCH":"2025-09-18T01:13:12.468000","MEAN_MOTION":13.10373672,"ECCENTRICITY":0.00017406,"INCLINATION":87.8734,"RA_OF_ASC_NODE":90.5178,"ARG_OF_PERICENTER":80.9367,"MEAN_ANOMALY":279.1957,"EPHEMERIS_TYPE":0,"CLASSIFICATION_TYPE":"U","NORAD_CAT_ID":51648,"ELEMENT_SET_NO":999,"REV_AT_EPOCH":17366,"BSTAR":0.0016472136,"MEAN_MOTION_DOT":5.88e-6,"MEAN_MOTION_DDOT":0},{"OBJECT_NAME":"ONEWEB-0461","OBJECT_ID":"2022-012AD","EPOCH":"2025-09-18T03:35:41.517312","MEAN_MOTION":13.17649121,"ECCENTRICITY":0.00018555,"INCLINATION":87.9055,"RA_OF_ASC_NODE":59.9505,"ARG_OF_PERICENTER":96.7223,"MEAN_ANOMALY":263.4119,"EPHEMERIS_TYPE":0,"CLASSIFICATION_TYPE":"U","NORAD_CAT_ID":51649,"ELEMENT_SET_NO":999,"REV_AT_EPOCH":17806,"BSTAR":-0.00048941363,"MEAN_MOTION_DOT":-1.77e-6,"MEAN_MOTION_DDOT":0},{"OBJECT_NAME":"ONEWEB-0463","OBJECT_ID":"2022-012AE","EPOCH":"2025-09-17T23:30:16.254720","MEAN_MOTION":13.17647176,"ECCENTRICITY":0.00017574,"INCLINATION":87.904,"RA_OF_ASC_NODE":60.0433,"ARG_OF_PERICENTER":91.2747,"MEAN_ANOMALY":268.8586,"EPHEMERIS_TYPE":0,"CLASSIFICATION_TYPE":"U","NORAD_CAT_ID":51650,"ELEMENT_SET_NO":999,"REV_AT_EPOCH":17782,"BSTAR":-3.45096e-6,"MEAN_MOTION_DOT":1.2e-7,"MEAN_MOTION_DDOT":0},{"OBJECT_NAME":"ONEWEB-0464","OBJECT_ID":"2022-012AF","EPOCH":"2025-09-17T23:18:28.144512","MEAN_MOTION":13.10374624,"ECCENTRICITY":0.000138,"INCLINATION":87.874,"RA_OF_ASC_NODE":90.5725,"ARG_OF_PERICENTER":86.2603,"MEAN_ANOMALY":273.8682,"EPHEMERIS_TYPE":0,"CLASSIFICATION_TYPE":"U","NORAD_CAT_ID":51651,"ELEMENT_SET_NO":999,"REV_AT_EPOCH":17367,"BSTAR":0.001343616,"MEAN_MOTION_DOT":4.82e-6,"MEAN_MOTION_DDOT":0},{"OBJECT_NAME":"ONEWEB-0468","OBJECT_ID":"2022-012AG","EPOCH":"2025-09-17T23:28:02.441856","MEAN_MOTION":13.10374202,"ECCENTRICITY":0.00015327,"INCLINATION":87.8737,"RA_OF_ASC_NODE":90.5633,"ARG_OF_PERICENTER":86.439,"MEAN_ANOMALY":273.6913,"EPHEMERIS_TYPE":0,"CLASSIFICATION_TYPE":"U","NORAD_CAT_ID":51652,"ELEMENT_SET_NO":999,"REV_AT_EPOCH":17365,"BSTAR":0.0013794113,"MEAN_MOTION_DOT":4.94e-6,"MEAN_MOTION_DDOT":0},{"OBJECT_NAME":"ONEWEB-0473","OBJECT_ID":"2022-012AH","EPOCH":"2025-09-18T00:56:27.216960","MEAN_MOTION":13.10375353,"ECCENTRICITY":0.0001667,"INCLINATION":87.8743,"RA_OF_ASC_NODE":90.5544,"ARG_OF_PERICENTER":82.1442,"MEAN_ANOMALY":277.9875,"EPHEMERIS_TYPE":0,"CLASSIFICATION_TYPE":"U","NORAD_CAT_ID":51653,"ELEMENT_SET_NO":999,"REV_AT_EPOCH":17366,"BSTAR":0.0001692573,"MEAN_MOTION_DOT":7.2e-7,"MEAN_MOTION_DDOT":0},{"OBJECT_NAME":"ONEWEB-0474","OBJECT_ID":"2022-012AJ","EPOCH":"2025-09-18T00:44:30.859008","MEAN_MOTION":13.1037018,"ECCENTRICITY":0.0001502,"INCLINATION":87.8747,"RA_OF_ASC_NODE":90.5171,"ARG_OF_PERICENTER":81.1351,"MEAN_ANOMALY":278.9946,"EPHEMERIS_TYPE":0,"CLASSIFICATION_TYPE":"U","NORAD_CAT_ID":51654,"ELEMENT_SET_NO":999,"REV_AT_EPOCH":17365,"BSTAR":0.0022424576,"MEAN_MOTION_DOT":7.95e-6,"MEAN_MOTION_DDOT":0},{"OBJECT_NAME":"ONEWEB-0475","OBJECT_ID":"2022-012AK","EPOCH":"2025-09-17T23:47:17.386944","MEAN_MOTION":13.1764874,"ECCENTRICITY":0.0001445,"INCLINATION":87.9049,"RA_OF_ASC_NODE":60.024,"ARG_OF_PERICENTER":65.2285,"MEAN_ANOMALY":294.8997,"EPHEMERIS_TYPE":0,"CLASSIFICATION_TYPE":"U","NORAD_CAT_ID":51655,"ELEMENT_SET_NO":999,"REV_AT_EPOCH":17784,"BSTAR":-0.00048084439,"MEAN_MOTION_DOT":-1.74e-6,"MEAN_MOTION_DDOT":0},{"OBJECT_NAME":"ONEWEB-0490","OBJECT_ID":"2022-138A","EPOCH":"2025-09-17T19:12:55.940544","MEAN_MOTION":13.19724574,"ECCENTRICITY":0.00016349,"INCLINATION":87.9291,"RA_OF_ASC_NODE":359.1167,"ARG_OF_PERICENTER":101.5466,"MEAN_ANOMALY":258.585,"EPHEMERIS_TYPE":0,"CLASSIFICATION_TYPE":"U","NORAD_CAT_ID":54113,"ELEMENT_SET_NO":999,"REV_AT_EPOCH":14090,"BSTAR":-0.00066159396,"MEAN_MOTION_DOT":-2.52e-6,"MEAN_MOTION_DDOT":0},{"OBJECT_NAME":"ONEWEB-0492","OBJECT_ID":"2022-138B","EPOCH":"2025-09-18T06:44:23.915040","MEAN_MOTION":13.19726015,"ECCENTRICITY":0.00017701,"INCLINATION":87.9284,"RA_OF_ASC_NODE":359.0434,"ARG_OF_PERICENTER":105.899,"MEAN_ANOMALY":254.2337,"EPHEMERIS_TYPE":0,"CLASSIFICATION_TYPE":"U","NORAD_CAT_ID":54114,"ELEMENT_SET_NO":999,"REV_AT_EPOCH":14097,"BSTAR":0.00011557172,"MEAN_MOTION_DOT":5.9e-7,"MEAN_MOTION_DDOT":0}]
