ONEWEB-0446             
1 51640U 22012U   25261.03256079 -.00000255  00000+0 -76619-3 0  9996
2 51640  87.8742  90.5626 0001767  94.2735 265.8594 13.10375109173687
ONEWEB-0448             
1 51641U 22012V   25261.03754026 -.00000154  00000+0 -47832-3 0  9995
2 51641  87.8741  90.5612 0001644  85.1692 274.9624 13.10375336173651
ONEWEB-0449             
1 51642U 22012W   25261.04253401  .00000291  00000+0  79699-3 0  9994
2 51642  87.8737  90.5309 0002093  78.2615 281.8747 13.10375488173669
ONEWEB-0451             
1 51643U 22012X   25260.97767084  .00000024  00000+0  28315-4 0  9997
2 51643  87.9055  59.9707 0001857  89.6627 270.4717 13.17649254177815
ONEWEB-0452             
1 51644U 22012Y   25260.97598364 -.00000147  00000+0 -41121-3 0  9998
2 51644  87.9047  60.0330 0001848  84.1148 276.0194 13.17648459177828
ONEWEB-0456             
1 51646U 22012AA  25260.97613629  .00000634  00000+0  17804-2 0  9991
2 51646  87.8743  90.5053 0001489  86.6171 273.5127 13.10373224173693
ONEWEB-0457             
1 51647U 22012AB  25261.02924047 -.00000480  00000+0 -14106-2 0  9991
2 51647  87.8739  90.5512 0002090  88.6545 271.4822 13.10375580173703
ONEWEB-0458             
1 51648U 22012AC  25261.05083875  .00000588  00000+0  16472-2 0  9995
2 51648  87.8734  90.5178 0001740  80.9367 279.1957 13.10373672173664
ONEWEB-0461             
1 51649U 22012AD  25261.14978608 -.00000177  00000+0 -48941-3 0  9996
2 51649  87.9055  59.9505 0001855  96.7223 263.4119 13.17649121178065
ONEWEB-0463             
1 51650U 22012AE  25260.97935480  .00000012  00000+0 -34510-5 0  9995
2 51650  87.9040  60.0433 0001757  91.2747 268.8586 13.17647176177824
ONEWEB-0464             
1 51651U 22012AF  25260.97115908  .00000482  00000+0  13436-2 0  9992
2 51651  87.8740  90.5725 0001380  86.2603 273.8682 13.10374624173670
ONEWEB-0468             
1 51652U 22012AG  25260.97780604  .00000494  00000+0  13794-2 0  9994
2 51652  87.8737  90.5633 0001532  86.4390 273.6913 13.10374202173654
ONEWEB-0473             
1 51653U 22012AH  25261.03920390  .00000072  00000+0  16926-3 0  9994
2 51653  87.8743  90.5544 0001667  82.1442 277.9875 13.10375353173666
ONEWEB-0474             
1 51654U 22012AJ  25261.03091272  .00000795  00000+0  22425-2 0  9995
2 51654  87.8747  90.5171 0001502  81.1351 278.9946 13.10370180173655
ONEWEB-0475             
1 51655U 22012AK  25260.99117346 -.00000174  00000+0 -48084-3 0  9994
2 51655  87.9049  60.0240 0001445  65.2285 294.8997 13.17648740177841
ONEWEB-0490             
1 54113U 22138A   25260.80064746 -.00000252  00000+0 -66159-3 0  9990
2 54113  87.9291 359.1167 0001634 101.5466 258.5850 13.19724574140901
ONEWEB-0492             
1 54114U 22138B   25261.28083235  .00000059  00000+0  11557-3 0  9993
2 54114  87.9284 359.0434 0001770 105.8990 254.2337 13.19726015140972
